XRISM                   
1 57800U 23137A   24005.94220347  .00004394  00000+0  34620-3 0  9995
2 57800  31.0051 330.0167 0009693  30.4979 329.6218 14.99139316 18074
